[{"OBJECT_NAME":"ONEWEB-0591","OBJECT_ID":"2022-166R","EPOCH":"2026-03-09T22:04:11.670528","MEAN_MOTION":13.21823933,"ECCENTRICITY":0.00016309,"INCLINATION":87.9165,"RA_OF_ASC_NODE":263.7813,"ARG_OF_PERICENTER":88.9424,"MEAN_ANOMALY":271.1897,"EPHEMERIS_TYPE":0,"CLASSIFICATION_TYPE":"U","NORAD_CAT_ID":54657,"ELEMENT_SET_NO":999,"REV_AT_EPOCH":15844,"BSTAR":-0.00019646487,"MEAN_MOTION_DOT":-6.8e-7,"MEAN_MOTION_DDOT":0},{"OBJECT_NAME":"THORAD AGENA D DEB","OBJECT_ID":"1970-025FV","EPOCH":"2026-03-10T00:03:03.788352","MEAN_MOTION":12.6567042,"ECCENTRICITY":0.04493839,"INCLINATION":99.6666,"RA_OF_ASC_NODE":76.9398,"ARG_OF_PERICENTER":287.9896,"MEAN_ANOMALY":127.4186,"EPHEMERIS_TYPE":0,"CLASSIFICATION_TYPE":"U","NORAD_CAT_ID":4929,"ELEMENT_SET_NO":999,"REV_AT_EPOCH":57198,"BSTAR":0.0013424212,"MEAN_MOTION_DOT":3.36e-6,"MEAN_MOTION_DDOT":0}]
